NORAD_CAT_ID,OBJECT_NAME,OBJECT_TYPE,EPOCH,MEAN_MOTION,ECCENTRICITY,INCLINATION,RA_OF_ASC_NODE,ARG_OF_PERICENTER,MEAN_ANOMALY,BSTAR,MEAN_MOTION_DOT,MEAN_MOTION_DDOT,TLE_LINE0,TLE_LINE1,TLE_LINE2,SEMIMAJOR_AXIS,PERIOD,APOGEE,PERIGEE,DECAYED
51773.0,STARLINK-3624,PAYLOAD,2024-04-06 17:27:17,15.08836064,0.0001442,53.2175,250.323,86.6433,273.4724,6.3634e-06,-1.87e-06,0.0,0 STARLINK-3624,1 51773U 22017F   24097.72728448 -.00000187  00000-0  63634-5 0  9993,2 51773  53.2175 250.3230 0001442  86.6433 273.4724 15.08836064116631,6917.892,95.438,540.755,538.76,0.0
51773.0,STARLINK-3624,PAYLOAD,2024-04-07 09:21:08,15.08837385,0.0001474,53.2193,247.3507,95.9749,264.1411,-2.0013e-05,-6.06e-06,0.0,0 STARLINK-3624,1 51773U 22017F   24098.38968660 -.00000606  00000-0 -20013-4 0  9998,2 51773  53.2193 247.3507 0001474  95.9749 264.1411 15.08837385116730,6917.888,95.438,540.773,538.734,0.0
51773.0,STARLINK-3624,PAYLOAD,2024-04-08 02:50:24,15.08815875,0.0001673,53.2182,244.0787,96.4498,263.6685,0.00033045,4.972e-05,0.0,0 STARLINK-3624,1 51773U 22017F   24099.11833502  .00004972  00000-0  33045-3 0  9992,2 51773  53.2182 244.0787 0001673  96.4498 263.6685 15.08815875118302,6917.954,95.439,540.977,538.662,0.0
51773.0,STARLINK-3624,PAYLOAD,2024-04-08 09:11:55,15.08836223,0.0001427,53.2181,242.8892,88.9189,271.1967,0.0001329,1.828e-05,0.0,0 STARLINK-3624,1 51773U 22017F   24099.38328581  .00001828  00000-0  13290-3 0  9994,2 51773  53.2181 242.8892 0001427  88.9189 271.1967 15.08836223118345,6917.892,95.438,540.744,538.77,0.0
51773.0,STARLINK-3624,PAYLOAD,2024-04-08 15:33:28,15.08840089,0.0001278,53.2172,241.6997,89.5554,270.5585,0.00016914,2.405e-05,0.0,0 STARLINK-3624,1 51773U 22017F   24099.64824285  .00002405  00000-0  16914-3 0  9993,2 51773  53.2172 241.6997 0001278  89.5554 270.5585 15.08840089116921,6917.88,95.438,540.629,538.861,0.0
51773.0,STARLINK-3624,PAYLOAD,2024-04-09 09:02:42,15.08848621,0.0001098,53.2154,238.4256,93.9627,266.1491,0.00013356,1.839e-05,0.0,0 STARLINK-3624,1 51773U 22017F   24100.37687740  .00001839  00000-0  13356-3 0  9996,2 51773  53.2154 238.4256 0001098  93.9627 266.1491 15.08848621118494,6917.854,95.437,540.479,538.959,0.0
51773.0,STARLINK-3624,PAYLOAD,2024-04-09 15:24:13,15.08856875,9.75e-05,53.2132,237.2358,96.3465,263.7638,0.00020213,2.932e-05,0.0,0 STARLINK-3624,1 51773U 22017F   24100.64182798  .00002932  00000-0  20213-3 0  9994,2 51773  53.2132 237.2358 0000975  96.3465 263.7638 15.08856875118531,6917.829,95.436,540.368,539.019,0.0
51773.0,STARLINK-3624,PAYLOAD,2024-04-10 08:53:29,15.08846161,0.0001874,53.2155,233.9652,96.5032,263.6173,6.5582e-05,7.56e-06,0.0,0 STARLINK-3624,1 51773U 22017F   24101.37047618  .00000756  00000-0  65582-4 0  9997,2 51773  53.2155 233.9652 0001874  96.5032 263.6173 15.08846161118649,6917.862,95.437,541.023,538.43,0.0
51773.0,STARLINK-3624,PAYLOAD,2024-04-10 15:15:01,15.0884362,0.0001887,53.2158,232.7755,98.3473,261.7733,3.877e-05,3.29e-06,0.0,0 STARLINK-3624,1 51773U 22017F   24101.63543744  .00000329  00000-0  38770-4 0  9992,2 51773  53.2158 232.7755 0001887  98.3473 261.7733 15.08843620117227,6917.869,95.437,541.04,538.429,0.0
51773.0,STARLINK-3624,PAYLOAD,2024-04-11 13:30:26,15.08839458,0.0001351,53.2161,228.615,91.8057,268.309,-0.00011889,-2.18e-05,0.0,0 STARLINK-3624,1 51773U 22017F   24102.56280475 -.00002180  00000-0 -11889-3 0  9994,2 51773  53.2161 228.6150 0001351  91.8057 268.3090 15.08839458118826,6917.882,95.438,540.682,538.812,0.0
51773.0,STARLINK-3624,PAYLOAD,2024-04-11 15:05:49,15.08840872,0.000134,53.2164,228.3187,83.571,276.5435,-8.6374e-05,-1.662e-05,0.0,0 STARLINK-3624,1 51773U 22017F   24102.62904390 -.00001662  00000-0 -86374-4 0  9996,2 51773  53.2164 228.3187 0001340  83.5710 276.5435 15.08840872117373,6917.878,95.437,540.67,538.816,0.0
51773.0,STARLINK-3624,PAYLOAD,2024-04-12 13:21:13,15.08830534,0.0001365,53.2173,224.1551,93.2017,266.9131,0.00012916,1.768e-05,0.0,0 STARLINK-3624,1 51773U 22017F   24103.55640919  .00001768  00000-0  12916-3 0  9998,2 51773  53.2173 224.1551 0001365  93.2017 266.9131 15.08830534117513,6917.909,95.438,540.719,538.83,0.0
51773.0,STARLINK-3624,PAYLOAD,2024-04-13 13:12:01,15.08826999,0.000124,53.2171,219.6939,91.4158,268.6976,0.00022537,3.299e-05,0.0,0 STARLINK-3624,1 51773U 22017F   24104.55001612  .00003299  00000-0  22537-3 0  9991,2 51773  53.2171 219.6939 0001240  91.4158 268.6976 15.08826999119123,6917.92,95.438,540.643,538.927,0.0
51773.0,STARLINK-3624,PAYLOAD,2024-04-13 14:47:24,15.08837752,0.0001421,53.2182,219.396,81.5904,278.5249,0.00012276,1.666e-05,0.0,0 STARLINK-3624,1 51773U 22017F   24104.61625274  .00001666  00000-0  12276-3 0  9999,2 51773  53.2182 219.3960 0001421  81.5904 278.5249 15.08837752117676,6917.887,95.438,540.735,538.769,0.0
51773.0,STARLINK-3624,PAYLOAD,2024-04-14 14:38:11,15.08845629,0.0001795,53.2182,214.935,59.6063,300.5107,0.00022511,3.297e-05,0.0,0 STARLINK-3624,1 51773U 22017F   24105.60985230  .00003297  00000-0  22511-3 0  9995,2 51773  53.2182 214.9350 0001795  59.6063 300.5107 15.08845629117824,6917.863,95.437,540.97,538.486,0.0
51773.0,STARLINK-3624,PAYLOAD,2024-04-15 12:53:35,15.08846471,0.0002253,53.2178,210.7754,47.0299,313.0882,0.00016487,2.337e-05,0.0,0 STARLINK-3624,1 51773U 22017F   24106.53721141  .00002337  00000-0  16487-3 0  9996,2 51773  53.2178 210.7754 0002253  47.0299 313.0882 15.08846471119426,6917.861,95.437,541.284,538.167,0.0
51773.0,STARLINK-3624,PAYLOAD,2024-04-15 14:28:57,15.08853755,0.0002048,53.2181,210.4716,57.6601,302.4589,0.0001722,2.454e-05,0.0,0 STARLINK-3624,1 51773U 22017F   24106.60344717  .00002454  00000-0  17220-3 0  9990,2 51773  53.2181 210.4716 0002048  57.6601 302.4589 15.08853755117978,6917.838,95.437,541.12,538.287,0.0
51773.0,STARLINK-3624,PAYLOAD,2024-04-15 16:04:20,15.08859652,0.0001854,53.2177,210.1748,62.0539,298.0641,0.00024922,3.683e-05,0.0,0 STARLINK-3624,1 51773U 22017F   24106.66968177  .00003683  00000-0  24922-3 0  9990,2 51773  53.2177 210.1748 0001854  62.0539 298.0641 15.08859652119444,6917.82,95.436,540.968,538.403,0.0
51773.0,STARLINK-3624,PAYLOAD,2024-04-16 00:01:17,15.08842629,0.0002219,53.2184,208.6888,63.5214,296.6006,3.1572e-05,2.14e-06,0.0,0 STARLINK-3624,1 51773U 22017F   24107.00089162  .00000214  00000-0  31572-4 0  9994,2 51773  53.2184 208.6888 0002219  63.5214 296.6006 15.08842629119491,6917.872,95.437,541.272,538.202,0.0
51773.0,STARLINK-3624,PAYLOAD,2024-04-16 14:19:44,15.08864604,0.0001612,53.2164,206.0133,62.1447,297.9708,0.00041869,6.386e-05,0.0,0 STARLINK-3624,1 51773U 22017F   24107.59703785  .00006386  00000-0  41869-3 0  9997,2 51773  53.2164 206.0133 0001612  62.1447 297.9708 15.08864604118122,6917.805,95.436,540.785,538.555,0.0
51773.0,STARLINK-3624,PAYLOAD,2024-04-17 12:35:08,15.08849882,0.0001447,53.2155,201.8521,86.5757,273.5401,0.00011607,1.56e-05,0.0,0 STARLINK-3624,1 51773U 22017F   24108.52440073  .00001560  00000-0  11607-3 0  9995,2 51773  53.2155 201.8521 0001447  86.5757 273.5401 15.08849882119724,6917.85,95.437,540.716,538.714,0.0
51773.0,STARLINK-3624,PAYLOAD,2024-04-18 12:25:56,15.08828524,0.0001436,53.216,197.3894,93.8321,266.2835,-4.5341e-05,-1.009e-05,0.0,0 STARLINK-3624,1 51773U 22017F   24109.51801334 -.00001009  00000-0 -45341-4 0  9999,2 51773  53.2160 197.3894 0001436  93.8321 266.2835 15.08828524119874,6917.915,95.438,540.774,538.787,0.0
51773.0,STARLINK-3624,PAYLOAD,2024-04-19 12:16:43,15.08850267,0.0001483,53.2164,192.925,103.8856,256.2301,0.00071965,0.00011187,0.0,0 STARLINK-3624,1 51773U 22017F   24110.51161408  .00011187  00000-0  71965-3 0  9998,2 51773  53.2164 192.9250 0001483 103.8856 256.2301 15.08850267120027,6917.849,95.437,540.74,538.688,0.0
51773.0,STARLINK-3624,PAYLOAD,2024-04-20 12:07:30,15.08857609,0.0001661,53.2178,188.4733,105.2219,254.8956,0.00077276,0.00012038,0.0,0 STARLINK-3624,1 51773U 22017F   24111.50521794  .00012038  00000-0  77276-3 0  9993,2 51773  53.2178 188.4733 0001661 105.2219 254.8956 15.08857609120178,6917.827,95.436,540.841,538.543,0.0
51773.0,STARLINK-3624,PAYLOAD,2024-04-21 10:22:55,15.08831818,0.0001726,53.2169,184.3065,106.2086,253.9096,0.00054155,8.339e-05,0.0,0 STARLINK-3624,1 51773U 22017F   24112.43258648  .00008339  00000-0  54155-3 0  9991,2 51773  53.2169 184.3065 0001726 106.2086 253.9096 15.08831818118857,6917.905,95.438,540.964,538.576,0.0
51773.0,STARLINK-3624,PAYLOAD,2024-04-22 10:13:42,15.08855576,0.000177,53.2169,179.8491,112.8957,247.2222,0.00069526,0.00010799,0.0,0 STARLINK-3624,1 51773U 22017F   24113.42618215  .00010799  00000-0  69526-3 0  9992,2 51773  53.2169 179.8491 0001770 112.8957 247.2222 15.08855576119000,6917.833,95.437,540.922,538.473,0.0
51773.0,STARLINK-3624,PAYLOAD,2024-04-22 11:49:05,15.08867942,0.0001576,53.2161,179.5496,69.4203,290.6958,0.0012183,0.00019169,0.0,0 STARLINK-3624,1 51773U 22017F   24113.49242212  .00019169  00000-0  12183-2 0  9995,2 51773  53.2161 179.5496 0001576  69.4203 290.6958 15.08867942120470,6917.795,95.436,540.75,538.57,0.0
51773.0,STARLINK-3624,PAYLOAD,2024-04-23 11:39:52,15.08848653,0.0001761,53.2154,175.0897,73.3804,286.7381,0.0009521,0.00014901,0.0,0 STARLINK-3624,1 51773U 22017F   24114.48602417  .00014901  00000-0  95210-3 0  9994,2 51773  53.2154 175.0897 0001761  73.3804 286.7381 15.08848653120626,6917.854,95.437,540.937,538.501,0.0
51773.0,STARLINK-3624,PAYLOAD,2024-04-24 13:06:03,15.08836885,0.0001574,53.215,170.3279,84.3798,275.7373,0.0012349,0.00019418,0.0,0 STARLINK-3624,1 51773U 22017F   24115.54587226  .00019418  00000-0  12349-2 0  9991,2 51773  53.2150 170.3279 0001574  84.3798 275.7373 15.08836885120780,6917.89,95.438,540.844,538.666,0.0
51773.0,STARLINK-3624,PAYLOAD,2024-04-25 03:24:31,15.08841608,0.000161,53.2144,167.6516,80.4808,279.6365,0.00033814,5.098e-05,0.0,0 STARLINK-3624,1 51773U 22017F   24116.14203195  .00005098  00000-0  33814-3 0  9998,2 51773  53.2144 167.6516 0001610  80.4808 279.6365 15.08841608120879,6917.875,95.437,540.854,538.627,0.0
